CCSDS_OMM_VERS = 2.0
CREATION_DATE  = 
ORIGINATOR     = 

OBJECT_NAME    = STARLINK-35343
OBJECT_ID      = 2026-003A
CENTER_NAME    = EARTH
REF_FRAME      = TEME
TIME_SYSTEM    = UTC
MEAN_ELEMENT_THEORY = SGP/SGP4

EPOCH          = 2026-01-25T20:00:03.000384
MEAN_MOTION    = 15.75031303
ECCENTRICITY   = .0001625
INCLINATION    = 42.9987
RA_OF_ASC_NODE = 113.0211
ARG_OF_PERICENTER = 261.1444
MEAN_ANOMALY   = 134.7887

EPHEMERIS_TYPE = 0
CLASSIFICATION_TYPE = U
NORAD_CAT_ID   = 67334
ELEMENT_SET_NO = 999
REV_AT_EPOCH   = 372
BSTAR          = .38886E-3
MEAN_MOTION_DOT = .59658E-3
MEAN_MOTION_DDOT = 0

CCSDS_OMM_VERS = 2.0
CREATION_DATE  = 
ORIGINATOR     = 

OBJECT_NAME    = STARLINK-36486
OBJECT_ID      = 2026-003B
CENTER_NAME    = EARTH
REF_FRAME      = TEME
TIME_SYSTEM    = UTC
MEAN_ELEMENT_THEORY = SGP/SGP4

EPOCH          = 2026-01-25T20:00:03.000384
MEAN_MOTION    = 15.75073773
ECCENTRICITY   = .0001371
INCLINATION    = 42.9988
RA_OF_ASC_NODE = 113.0155
ARG_OF_PERICENTER = 270.7948
MEAN_ANOMALY   = 127.0364

EPHEMERIS_TYPE = 0
CLASSIFICATION_TYPE = U
NORAD_CAT_ID   = 67335
ELEMENT_SET_NO = 999
REV_AT_EPOCH   = 378
BSTAR          = -.18615E-3
MEAN_MOTION_DOT = -.29016E-3
MEAN_MOTION_DDOT = 0

CCSDS_OMM_VERS = 2.0
CREATION_DATE  = 
ORIGINATOR     = 

OBJECT_NAME    = STARLINK-36480
OBJECT_ID      = 2026-003C
CENTER_NAME    = EARTH
REF_FRAME      = TEME
TIME_SYSTEM    = UTC
MEAN_ELEMENT_THEORY = SGP/SGP4

EPOCH          = 2026-01-25T20:00:03.000384
MEAN_MOTION    = 15.75053919
ECCENTRICITY   = .0001714
INCLINATION    = 42.9989
RA_OF_ASC_NODE = 113.0107
ARG_OF_PERICENTER = 281.5294
MEAN_ANOMALY   = 118.2232

EPHEMERIS_TYPE = 0
CLASSIFICATION_TYPE = U
NORAD_CAT_ID   = 67336
ELEMENT_SET_NO = 999
REV_AT_EPOCH   = 378
BSTAR          = .18881E-3
MEAN_MOTION_DOT = .28642E-3
MEAN_MOTION_DDOT = 0

CCSDS_OMM_VERS = 2.0
CREATION_DATE  = 
ORIGINATOR     = 

OBJECT_NAME    = STARLINK-36410
OBJECT_ID      = 2026-003D
CENTER_NAME    = EARTH
REF_FRAME      = TEME
TIME_SYSTEM    = UTC
MEAN_ELEMENT_THEORY = SGP/SGP4

EPOCH          = 2026-01-25T20:00:03.000384
MEAN_MOTION    = 15.75066400
ECCENTRICITY   = .0001711
INCLINATION    = 42.9989
RA_OF_ASC_NODE = 113.0057
ARG_OF_PERICENTER = 286.2424
MEAN_ANOMALY   = 115.4262

EPHEMERIS_TYPE = 0
CLASSIFICATION_TYPE = U
NORAD_CAT_ID   = 67337
ELEMENT_SET_NO = 999
REV_AT_EPOCH   = 378
BSTAR          = -.34035E-4
MEAN_MOTION_DOT = -.5709E-4
MEAN_MOTION_DDOT = 0

CCSDS_OMM_VERS = 2.0
CREATION_DATE  = 
ORIGINATOR     = 

OBJECT_NAME    = STARLINK-36413
OBJECT_ID      = 2026-003E
CENTER_NAME    = EARTH
REF_FRAME      = TEME
TIME_SYSTEM    = UTC
MEAN_ELEMENT_THEORY = SGP/SGP4

EPOCH          = 2026-01-25T20:00:03.000384
MEAN_MOTION    = 15.75058830
ECCENTRICITY   = .0001588
INCLINATION    = 42.9987
RA_OF_ASC_NODE = 113.0012
ARG_OF_PERICENTER = 271.9783
MEAN_ANOMALY   = 131.6104

EPHEMERIS_TYPE = 0
CLASSIFICATION_TYPE = U
NORAD_CAT_ID   = 67338
ELEMENT_SET_NO = 999
REV_AT_EPOCH   = 378
BSTAR          = .14246E-3
MEAN_MOTION_DOT = .21481E-3
MEAN_MOTION_DDOT = 0

CCSDS_OMM_VERS = 2.0
CREATION_DATE  = 
ORIGINATOR     = 

OBJECT_NAME    = STARLINK-36451
OBJECT_ID      = 2026-003F
CENTER_NAME    = EARTH
REF_FRAME      = TEME
TIME_SYSTEM    = UTC
MEAN_ELEMENT_THEORY = SGP/SGP4

EPOCH          = 2026-01-25T20:00:03.000384
MEAN_MOTION    = 15.75090872
ECCENTRICITY   = .0001353
INCLINATION    = 42.9988
RA_OF_ASC_NODE = 112.9958
ARG_OF_PERICENTER = 269.0975
MEAN_ANOMALY   = 136.4027

EPHEMERIS_TYPE = 0
CLASSIFICATION_TYPE = U
NORAD_CAT_ID   = 67339
ELEMENT_SET_NO = 999
REV_AT_EPOCH   = 378
BSTAR          = -.39904E-3
MEAN_MOTION_DOT = -.61466E-3
MEAN_MOTION_DDOT = 0

CCSDS_OMM_VERS = 2.0
CREATION_DATE  = 
ORIGINATOR     = 

OBJECT_NAME    = STARLINK-36339
OBJECT_ID      = 2026-003G
CENTER_NAME    = EARTH
REF_FRAME      = TEME
TIME_SYSTEM    = UTC
MEAN_ELEMENT_THEORY = SGP/SGP4

EPOCH          = 2026-01-25T20:00:03.000384
MEAN_MOTION    = 15.75044290
ECCENTRICITY   = .0001742
INCLINATION    = 42.9987
RA_OF_ASC_NODE = 112.9918
ARG_OF_PERICENTER = 273.9850
MEAN_ANOMALY   = 133.4409

EPHEMERIS_TYPE = 0
CLASSIFICATION_TYPE = U
NORAD_CAT_ID   = 67340
ELEMENT_SET_NO = 999
REV_AT_EPOCH   = 378
BSTAR          = .30522E-3
MEAN_MOTION_DOT = .46678E-3
MEAN_MOTION_DDOT = 0

CCSDS_OMM_VERS = 2.0
CREATION_DATE  = 
ORIGINATOR     = 

OBJECT_NAME    = STARLINK-36453
OBJECT_ID      = 2026-003H
CENTER_NAME    = EARTH
REF_FRAME      = TEME
TIME_SYSTEM    = UTC
MEAN_ELEMENT_THEORY = SGP/SGP4

EPOCH          = 2026-01-25T20:00:03.000384
MEAN_MOTION    = 15.75081823
ECCENTRICITY   = .0001438
INCLINATION    = 42.9990
RA_OF_ASC_NODE = 112.9863
ARG_OF_PERICENTER = 277.1576
MEAN_ANOMALY   = 132.1793

EPHEMERIS_TYPE = 0
CLASSIFICATION_TYPE = U
NORAD_CAT_ID   = 67341
ELEMENT_SET_NO = 999
REV_AT_EPOCH   = 378
BSTAR          = -.28972E-3
MEAN_MOTION_DOT = -.44828E-3
MEAN_MOTION_DDOT = 0

CCSDS_OMM_VERS = 2.0
CREATION_DATE  = 
ORIGINATOR     = 

OBJECT_NAME    = STARLINK-36432
OBJECT_ID      = 2026-003J
CENTER_NAME    = EARTH
REF_FRAME      = TEME
TIME_SYSTEM    = UTC
MEAN_ELEMENT_THEORY = SGP/SGP4

EPOCH          = 2026-01-25T20:00:03.000384
MEAN_MOTION    = 15.75071291
ECCENTRICITY   = .0001729
INCLINATION    = 42.9990
RA_OF_ASC_NODE = 112.9810
ARG_OF_PERICENTER = 271.3897
MEAN_ANOMALY   = 139.8656

EPHEMERIS_TYPE = 0
CLASSIFICATION_TYPE = U
NORAD_CAT_ID   = 67342
ELEMENT_SET_NO = 999
REV_AT_EPOCH   = 377
BSTAR          = -.76436E-4
MEAN_MOTION_DOT = -.12219E-3
MEAN_MOTION_DDOT = 0

CCSDS_OMM_VERS = 2.0
CREATION_DATE  = 
ORIGINATOR     = 

OBJECT_NAME    = STARLINK-36458
OBJECT_ID      = 2026-003K
CENTER_NAME    = EARTH
REF_FRAME      = TEME
TIME_SYSTEM    = UTC
MEAN_ELEMENT_THEORY = SGP/SGP4

EPOCH          = 2026-01-25T20:00:03.000384
MEAN_MOTION    = 15.75095309
ECCENTRICITY   = .000144
INCLINATION    = 42.9987
RA_OF_ASC_NODE = 112.9768
ARG_OF_PERICENTER = 256.8841
MEAN_ANOMALY   = 156.2815

EPHEMERIS_TYPE = 0
CLASSIFICATION_TYPE = U
NORAD_CAT_ID   = 67343
ELEMENT_SET_NO = 999
REV_AT_EPOCH   = 378
BSTAR          = -.50019E-3
MEAN_MOTION_DOT = -.76803E-3
MEAN_MOTION_DDOT = 0

CCSDS_OMM_VERS = 2.0
CREATION_DATE  = 
ORIGINATOR     = 

OBJECT_NAME    = STARLINK-36422
OBJECT_ID      = 2026-003L
CENTER_NAME    = EARTH
REF_FRAME      = TEME
TIME_SYSTEM    = UTC
MEAN_ELEMENT_THEORY = SGP/SGP4

EPOCH          = 2026-01-25T20:00:03.000384
MEAN_MOTION    = 15.75041325
ECCENTRICITY   = .0001612
INCLINATION    = 42.9988
RA_OF_ASC_NODE = 112.9712
ARG_OF_PERICENTER = 273.7027
MEAN_ANOMALY   = 141.3955

EPHEMERIS_TYPE = 0
CLASSIFICATION_TYPE = U
NORAD_CAT_ID   = 67344
ELEMENT_SET_NO = 999
REV_AT_EPOCH   = 377
BSTAR          = .26325E-3
MEAN_MOTION_DOT = .40157E-3
MEAN_MOTION_DDOT = 0

CCSDS_OMM_VERS = 2.0
CREATION_DATE  = 
ORIGINATOR     = 

OBJECT_NAME    = STARLINK-35676
OBJECT_ID      = 2026-003M
CENTER_NAME    = EARTH
REF_FRAME      = TEME
TIME_SYSTEM    = UTC
MEAN_ELEMENT_THEORY = SGP/SGP4

EPOCH          = 2026-01-25T20:00:03.000384
MEAN_MOTION    = 15.75081518
ECCENTRICITY   = .0001591
INCLINATION    = 42.9989
RA_OF_ASC_NODE = 112.9667
ARG_OF_PERICENTER = 262.9146
MEAN_ANOMALY   = 154.0873

EPHEMERIS_TYPE = 0
CLASSIFICATION_TYPE = U
NORAD_CAT_ID   = 67345
ELEMENT_SET_NO = 999
REV_AT_EPOCH   = 377
BSTAR          = -.30743E-3
MEAN_MOTION_DOT = -.47523E-3
MEAN_MOTION_DDOT = 0

