STARLINK-35343          
1 67334U 26003A   26025.83336806  .00059658  00000+0  38886-3 0  9994
2 67334  42.9987 113.0211 0001625 261.1444 134.7887 15.75031303  3727
STARLINK-36486          
1 67335U 26003B   26025.83336806 -.00029016  00000+0 -18615-3 0  9990
2 67335  42.9988 113.0155 0001371 270.7948 127.0364 15.75073773  3787
STARLINK-36480          
1 67336U 26003C   26025.83336806  .00028642  00000+0  18881-3 0  9998
2 67336  42.9989 113.0107 0001714 281.5294 118.2232 15.75053919  3787
STARLINK-36410          
1 67337U 26003D   26025.83336806 -.00005709  00000+0 -34035-4 0  9990
2 67337  42.9989 113.0057 0001711 286.2424 115.4262 15.75066400  3787
STARLINK-36413          
1 67338U 26003E   26025.83336806  .00021481  00000+0  14246-3 0  9995
2 67338  42.9987 113.0012 0001588 271.9783 131.6104 15.75058830  3781
STARLINK-36451          
1 67339U 26003F   26025.83336806 -.00061466  00000+0 -39904-3 0  9993
2 67339  42.9988 112.9958 0001353 269.0975 136.4027 15.75090872  3780
STARLINK-36339          
1 67340U 26003G   26025.83336806  .00046678  00000+0  30522-3 0  9998
2 67340  42.9987 112.9918 0001742 273.9850 133.4409 15.75044290  3789
STARLINK-36453          
1 67341U 26003H   26025.83336806 -.00044828  00000+0 -28972-3 0  9992
2 67341  42.9990 112.9863 0001438 277.1576 132.1793 15.75081823  3781
STARLINK-36432          
1 67342U 26003J   26025.83336806 -.00012219  00000+0 -76436-4 0  9991
2 67342  42.9990 112.9810 0001729 271.3897 139.8656 15.75071291  3778
STARLINK-36458          
1 67343U 26003K   26025.83336806 -.00076803  00000+0 -50019-3 0  9999
2 67343  42.9987 112.9768 0001440 256.8841 156.2815 15.75095309  3781
STARLINK-36422          
1 67344U 26003L   26025.83336806  .00040157  00000+0  26325-3 0  9994
2 67344  42.9988 112.9712 0001612 273.7027 141.3955 15.75041325  3775
STARLINK-35676          
1 67345U 26003M   26025.83336806 -.00047523  00000+0 -30743-3 0  9990
2 67345  42.9989 112.9667 0001591 262.9146 154.0873 15.75081518  3772
